CCSDS_OEM_VERS = 2.0  
CREATION_DATE  = 2026-03-24T10:47:05
ORIGINATOR     = ESOC/OPS-GFA                            
 
 



META_START
OBJECT_NAME          = LISA                                    
OBJECT_ID            = -1000                                   
CENTER_NAME          = SUN                     
REF_FRAME            = EME2000 
TIME_SYSTEM          = TCB
START_TIME           = 2036-12-23T00:00:30.346418            
STOP_TIME            = 2047-09-06T14:16:03.498131            
INTERPOLATION        = HERMITE                                 
INTERPOLATION_DEGREE = 7                                       
META_STOP

2040-08-24T19:28:54.527093     1.03460047551703960e+08   -9.87414765671478808e+07   -4.32508680750141144e+07    2.16117872422498252e+01    1.87676735382730016e+01    8.39016035771354396e+00   -4.11618298143233797e-06    3.92878926285471955e-06    1.72089029894496168e-06
2040-08-25T15:39:19.050899     1.05018684147781983e+08   -9.73681708510395885e+07   -4.26370200790608600e+07    2.13106236435047940e+01    1.90509934077144365e+01    8.51424248641003700e+00   -4.17738374153780092e-06    3.87339684354278605e-06    1.69613749898811372e-06
2040-08-26T11:49:43.574705     1.06555288288823545e+08   -9.59744359485561848e+07   -4.20142262634737939e+07    2.10050481380215643e+01    1.93302614869941856e+01    8.63651428759129303e+00   -4.23768000405726111e-06    3.81720944256431263e-06    1.67103677406438060e-06
2040-08-27T08:01:02.857186     1.08070675234866813e+08   -9.45594946689784676e+07   -4.13821395097203031e+07    2.06948915435022762e+01    1.96056264109641489e+01    8.75704081103215870e+00   -4.29710438982549253e-06    3.76019671119164803e-06    1.64557456617814101e-06
2040-08-28T04:12:22.139667     1.09563364104298323e+08   -9.31246913328781873e+07   -4.07413605257580653e+07    2.03804497476873756e+01    1.98768196042393583e+01    8.87570447471509283e+00   -4.35559890374938636e-06    3.70241324624440743e-06    1.61977526305599807e-06
2040-08-29T00:23:41.422148     1.11033045951333642e+08   -9.16703311692821085e+07   -4.00920255908301473e+07    2.00617907563860598e+01    2.01437855206474374e+01    8.99248098851679956e+00   -4.41315191964910858e-06    3.64387200322965238e-06    1.59364464300963958e-06
2040-08-29T20:35:00.704629     1.12479416739567772e+08   -9.01967233918515742e+07   -3.94342727265178934e+07    1.97389834146184313e+01    2.04064695594420940e+01    9.10734648394811153e+00   -4.46975197495796676e-06    3.58458604525654811e-06    1.56718853128881792e-06
2040-08-30T16:46:19.987110     1.13902177457444772e+08   -8.87041811463787407e+07   -3.87682416730424464e+07    1.94120973937507060e+01    2.06648180735599460e+01    9.22027751775430637e+00   -4.52538779663684437e-06    3.52456855447368132e-06    1.54041280503037764e-06
2040-08-31T12:57:39.269591     1.15301034206526846e+08   -8.71930214497059137e+07   -3.80940738618842959e+07    1.90812031769246850e+01    2.09187783785983470e+01    9.33125107582709212e+00   -4.58004832227149517e-06    3.46383284055170802e-06    1.51332339692055068e-06
2040-09-01T09:08:58.552071     1.16675698268278927e+08   -8.56635651217878014e+07   -3.74119123854581341e+07    1.87463720431286305e+01    2.11682987623025340e+01    9.44024457733608635e+00   -4.63372271635973068e-06    3.40239234621516098e-06    1.48592629757228662e-06
2040-09-02T05:20:17.834552     1.18025886155068159e+08   -8.41161367126283497e+07   -3.67219019645854384e+07    1.84076760502594645e+01    2.14133284943473932e+01    9.54723587898630299e+00   -4.68640038178273821e-06    3.34026064981909854e-06    1.45822755661567975e-06
2040-09-03T01:31:37.117033     1.19351319651078075e+08   -8.25510644258237183e+07   -3.60241889145074040e+07    1.80651880175259585e+01    2.16538178361993303e+01    9.65220327930819977e+00   -4.73807096646937434e-06    3.27745146497733719e-06    1.43023328250435636e-06
2040-09-03T21:42:56.399515     1.20651725848837182e+08   -8.09686800404432416e+07   -3.53189211101806536e+07    1.77189815075428072e+01    2.18897180508435270e+01    9.75512552288683210e+00   -4.78872436523405190e-06    3.21397863722702216e-06    1.40194964103135933e-06
2040-09-04T17:54:15.681995     1.21926837187061414e+08   -7.93693188329798877e+07   -3.46062479515983015e+07    1.73691308084652967e+01    2.21209814121620312e+01    9.85598180443663630e+00   -4.83835071682278120e-06    3.14985613775606852e-06    1.37338285256590854e-06
2040-09-05T14:05:34.964477     1.23176391495510608e+08   -7.77533195011018813e+07   -3.38863203298788890e+07    1.70157109165144327e+01    2.23475612137480653e+01    9.95475177262838429e+00   -4.88694039612978764e-06    3.08509805416686278e-06    1.34453918799955177e-06
2040-09-06T10:16:54.246958     1.24400132052558228e+08   -7.61210240909372866e+07   -3.31592905948656723e+07    1.66587975192422775e+01    2.25694117769418483e+01    1.00514155335748612e+01   -4.93448400160659992e-06    3.01971857828860394e-06    1.31542496340706621e-06
2040-09-07T06:28:13.529439     1.25597807661174029e+08   -7.44727779296230376e+07   -3.24253125249788836e+07    1.62984669798873227e+01    2.27864884578734390e+01    1.01459536538817829e+01   -4.98097233785042295e-06    2.95373199103053500e-06    1.28604653341871060e-06
2040-09-08T02:39:32.811920     1.26769172749019951e+08   -7.28089295648502111e+07   -3.16845413000632487e+07    1.59347963231696639e+01    2.29987476532979009e+01    1.02383471631705092e+01   -5.02639639341559396e-06    2.88715264431450653e-06    1.25641028332064547e-06
2040-09-08T22:50:52.094401     1.27913987498357967e+08   -7.11298307131372094e+07   -3.09371334779736921e+07    1.55678632228757490e+01    2.32061468050081352e+01    1.03285775559791002e+01   -5.07074731371749916e-06    2.81999493997133721e-06    1.22652261983306053e-06
2040-09-09T19:04:35.635673     1.29034210046674639e+08   -6.94324592087072134e+07   -3.01817442398092262e+07    1.51970082221185514e+01    2.34090414459324343e+01    1.04167993842406332e+01   -5.11410184203213431e-06    2.75213876398225666e-06    1.19633009841866891e-06
2040-09-10T15:18:19.176944     1.30127311641386420e+08   -6.77204926236449480e+07   -2.94200106505194530e+07    1.48230357790006160e+01    2.36069744023159913e+01    1.05028137334623679e+01   -5.15636231820830169e-06    2.68373146831268480e-06    1.16589829765328622e-06
2040-09-11T11:32:02.718216     1.31193068201366588e+08   -6.59942937328279391e+07   -2.86520940946967416e+07    1.44460258553794141e+01    2.37999060824475279e+01    1.05866034197470409e+01   -5.19752082973692529e-06    2.61478796985921351e-06    1.13523384820157004e-06
2040-09-12T07:45:46.259488     1.32231261422883287e+08   -6.42542281504491642e+07   -2.78781571890983880e+07    1.40660589829333720e+01    2.39877979832717223e+01    1.06681517430811077e+01   -5.23756964495424280e-06    2.54532325141170351e-06    1.10434340913023129e-06
2040-09-13T03:59:29.800760     1.33241678878116429e+08   -6.25006642551320940e+07   -2.70983637491181307e+07    1.36832162489405658e+01    2.41706126954209104e+01    1.07474424895018572e+01   -5.27650124092877211e-06    2.47535236767906394e-06    1.07323367045835802e-06
2040-09-14T00:13:13.342031     1.34224114085111588e+08   -6.07339731124065667e+07   -2.63128787542077042e+07    1.32975792802267225e+01    2.43483139086144291e+01    1.08244599334195826e+01   -5.31430832594205534e-06    2.40489044941974508e-06    1.04191135489161762e-06
2040-09-14T20:26:56.883304     1.35178366555157304e+08   -5.89545283950232714e+07   -2.55218683124351092e+07    1.29092302256728004e+01    2.45208664172896924e+01    1.08991888400363255e+01   -5.35098385656870129e-06    2.33395270567780665e-06    1.01038321874081184e-06
2040-09-15T16:40:40.424576     1.36104241823559940e+08   -5.71627063015992045e+07   -2.47254996243728623e+07    1.25182517376756568e+01    2.46882361263270553e+01    1.09716144678017589e+01   -5.38652104934626921e-06    2.26255442412031002e-06    9.78656052022899405e-07
2040-09-16T12:54:23.965848     1.37001551469790280e+08   -5.53588854740867391e+07   -2.39239409465095550e+07    1.21247269529553048e+01    2.48503900567303333e+01    1.10417225708467779e+01   -5.42091338705328898e-06    2.19071096948447524e-06    9.46736677748140933e-07
2040-09-17T09:08:07.507120     1.37870113132975698e+08   -5.35434469145585001e+07   -2.31173615543779433e+07    1.17287394731022765e+01    2.50072963511249853e+01    1.11094994013353325e+01   -5.45415461956393679e-06    2.11843778011988751e-06    9.14631950387001265e-07
2040-09-18T05:21:51.048391     1.38709750528712541e+08   -5.17167739018008858e+07   -2.23059317055929676e+07    1.13303733452585895e+01    2.51589242789358636e+01    1.11749317116750913e+01   -5.48623875932527227e-06    2.04575036264657805e-06    8.82348753525847410e-07
2040-09-19T01:35:34.589663     1.39520293473172188e+08   -4.98792519082083553e+07   -2.14898226029928476e+07    1.09297130433258829e+01    2.53052442411065002e+01    1.12380067565274651e+01   -5.51716007141184689e-06    1.97266428471045843e-06    8.49893996703349199e-07
2040-09-19T21:49:18.130935     1.40301577920475364e+08   -4.80312685174709931e+07   -2.06692063580766432e+07    1.05268434500941002e+01    2.54462277742218816e+01    1.12987122945575731e+01   -5.54691305817882806e-06    1.89919516584236018e-06    8.17274611430421072e-07
2040-09-20T18:03:01.672208     1.41053446019308418e+08   -4.61732133435484469e+07   -1.98442559549315460e+07    1.01218498406844652e+01    2.55818475538966155e+01    1.13570365898646983e+01   -5.57549243851247877e-06    1.82535866642002957e-06    7.84497546393229496e-07
2040-09-21T14:16:45.213480     1.41775746194756180e+08   -4.43054779514212459e+07   -1.90151452148432508e+07    9.71481786769994571e+00    2.57120773972905283e+01    1.14129684130337736e+01   -5.60289312170575134e-06    1.75117047475394477e-06    7.51569761848598296e-07
